0 SSN-23 R/B
1 25391U 98042C   13282.16399921  .00046239  00000-0  36782-3 0  9240
2 25391 078.9231 050.1656 0071385 280.0480 136.6760 15.67543151848907
0 SSN-23 R/B
1 25391U 98042C   13283.18552829  .00041215  00000-0  32692-3 0  9257
2 25391 078.9229 048.5586 0071279 276.6294 141.4841 15.67629601849060
0 SSN-23 R/B
1 25391U 98042C   13283.62190582  .00076629  00000-0  60994-3 0  9275
2 25391 078.9227 047.8734 0070974 275.1276 084.2378 15.67663415849138
0 SSN-23 R/B
1 25391U 98042C   13283.74955925  .00053311  00000-0  42403-3 0  9298
2 25391 078.9227 047.6724 0071034 274.7035 084.6615 15.67674763849159
0 SSN-23 R/B
1 25391U 98042C   13284.20959936  .00043500  00000-0  34408-3 0  9268
2 25391 078.9228 046.9474 0071180 273.2572 160.8859 15.67699246849224
0 SSN-23 R/B
1 25391U 98042C   13285.49523755  .00040167  00000-0  31667-3 0  9277
2 25391 078.9232 044.9245 0071007 269.0170 216.8406 15.67798235849428
0 SSN-23 R/B
1 25391U 98042C   13286.51572183  .00038915  00000-0  30609-3 0  9284
2 25391 078.9235 043.3184 0070885 265.6510 216.6287 15.67865960849581
0 SSN-23 R/B
1 25391U 98042C   13287.53766313  .00042725  00000-0  33500-3 0  9295
2 25391 078.9239 041.7098 0070742 262.2936 224.8923 15.67944607849740
0 SSN-23 R/B
1 25391U 98042C   13288.16680260  .00056567  00000-0  44189-3 0  9307
2 25391 078.9240 040.7196 0070612 260.2139 176.1905 15.68012981849841
0 SSN-23 R/B
1 25391U 98042C   13289.18735273  .00052212  00000-0  40647-3 0  9314
2 25391 078.9242 039.1133 0070501 256.8466 177.1878 15.68112060850006
0 SSN-23 R/B
1 25391U 98042C   13290.14569193  .00049185  00000-0  38184-3 0  9327
2 25391 078.9245 037.6047 0070371 253.6766 187.3227 15.68194837850158
0 SSN-23 R/B
1 25391U 98042C   13291.16493675  .00051251  00000-0  39631-3 0  9337
2 25391 078.9245 036.0002 0070280 250.3639 181.5675 15.68290102850317
0 SSN-23 R/B
1 25391U 98042C   13292.18068760  .00047119  00000-0  36324-3 0  9348
2 25391 078.9245 034.4009 0070128 247.0337 156.4472 15.68383748850477
0 SSN-23 R/B
1 25391U 98042C   13293.20240663  .00046660  00000-0  35866-3 0  9357
2 25391 078.9244 032.7919 0069949 243.6332 165.4165 15.68468251850633
0 SSN-23 R/B
1 25391U 98042C   13294.81418309  .00057372  00000-0  43833-3 0  9365
2 25391 078.9241 030.2529 0069605 238.3108 266.6708 15.68617010850884
0 SSN-23 R/B
1 25391U 98042C   13295.50779360  .00056146  00000-0  42809-3 0  9370
2 25391 078.9240 029.1604 0069513 235.9866 223.5984 15.68674888850992
